ONEWEB-0403             
1 50483U 21132Q   25331.21025595  .00000058  00000+0  11343-3 0  9999
2 50483  87.9200  15.5686 0001747  99.2656 260.8673 13.18684817194974
ONEWEB-0404             
1 50484U 21132R   25331.29764630 -.00000179  00000+0 -54115-3 0  9998
2 50484  87.8863  61.2763 0001380 112.5834 247.5440 13.11419260189231
ONEWEB-0405             
1 50485U 21132S   25331.07334668  .00000116  00000+0  26117-3 0  9999
2 50485  87.9200  15.5797 0001947 105.1014 255.0334 13.18683771195357
ONEWEB-0406             
1 50486U 21132T   25331.13933462  .00000044  00000+0  79722-4 0  9995
2 50486  87.9202  15.5913 0001330  93.6673 266.4611 13.18684942194992
ONEWEB-0407             
1 50487U 21132U   25331.20860678  .00000105  00000+0  23324-3 0  9996
2 50487  87.9201  15.5614 0002039  97.0479 263.0885 13.18684689194948
ONEWEB-0409             
1 50488U 21132V   25331.29595476 -.00000195  00000+0 -58576-3 0  9995
2 50488  87.8878  61.2430 0001297 104.7300 255.3972 13.11420247189122
ONEWEB-0412             
1 50489U 21132W   25331.19706631  .00000052  00000+0  99861-4 0  9995
2 50489  87.9200  15.5764 0002074 104.6757 255.4605 13.18685220195036
ONEWEB-0413             
1 50490U 21132X   25330.67089123 -.00000028  00000+0 -10321-3 0  9997
2 50490  87.9192  15.6952 0002143 101.8918 258.2454 13.18686600194904
